LYNK TOWER 5            
1 59121U 24043Z   26068.92489786  .00009048  00000+0  31902-3 0  9994
2 59121  97.5458 204.7305 0010406 234.6422 125.3846 15.29454506111860
STARLINK-32220          
1 60370U 24138R   26068.93746876  .00004059  00000+0  14922-3 0  9994
2 60370  53.1608 308.5865 0001295  78.0199 282.0947 15.30176624 90665
